GLOBALSTAR M001 [-]     
1 25162U 98008A   24067.43421049 -.00000053  00000+0  33313-3 0  9991
2 25162  52.0010 251.7101 0001698  25.3451 339.9499 12.38178569186008
GLOBALSTAR M004 [-]     
1 25163U 98008B   24067.64206597 -.00000087  00000+0  94167-4 0  9996
2 25163  52.0010  37.4219 0002962 340.9902 202.5662 12.63351621202714
GLOBALSTAR M002 [-]     
1 25164U 98008C   24067.99061563 -.00000060  00000+0  31773-3 0  9991
2 25164  52.0040 329.1077 0001798  27.4138 332.6777 11.61498528129967
GLOBALSTAR M003 [-]     
1 25165U 98008D   24068.28202278  .00000018  00000+0  11508-2 0  9990
2 25165  51.9851  18.9279 0008316  76.1264  75.6569 12.11983546176811
GLOBALSTAR M014 [-]     
1 25306U 98023A   24067.46591365 -.00000045  00000+0  60596-3 0  9994
2 25306  51.9816 263.4577 0000725 148.4135 216.9749 11.65465585136747
GLOBALSTAR M006 [-]     
1 25307U 98023B   24068.36306534 -.00000035  00000+0  83504-3 0  9990
2 25307  51.9938 296.2549 0003975   3.5768 167.8689 11.58157233162969
GLOBALSTAR M015 [-]     
1 25308U 98023C   24067.63803463 -.00000147  00000+0 -16749-2 0  9994
2 25308  51.9855  15.1446 0012548 327.0571 204.6727 11.48853300140454
GLOBALSTAR M008 [-]     
1 25309U 98023D   24068.36343730 -.00000066  00000+0  23339-3 0  9995
2 25309  51.9957 108.5595 0002227 267.6273 105.2872 12.36037566180559
